STARLINK-31570          
1 59324U 24057E   26068.35684828  .00000018  00000+0  10165-4 0  9992
2 59324  42.9966 189.3406 0000715 262.3342  97.7428 15.27569828109782
TEVEL2-9                
1 63237U 25052AD  26068.70229538  .00018694  00000+0  67240-3 0  9992
2 63237  97.4057 324.3929 0007990 124.2475 235.9522 15.28633834 54816
